NORAD_CAT_ID,OBJECT_NAME,OBJECT_TYPE,EPOCH,MEAN_MOTION,ECCENTRICITY,INCLINATION,RA_OF_ASC_NODE,ARG_OF_PERICENTER,MEAN_ANOMALY,BSTAR,MEAN_MOTION_DOT,MEAN_MOTION_DDOT,TLE_LINE0,TLE_LINE1,TLE_LINE2,SEMIMAJOR_AXIS,PERIOD,APOGEE,PERIGEE,DECAYED
52134.0,STARLINK-3721,PAYLOAD,2024-05-25 08:17:41,15.08831094,0.0001476,53.2175,122.093,111.8851,248.2298,-2.6265e-06,-3.3e-06,0.0,0 STARLINK-3721,1 52134U 22029AY  24146.34562434 -.00000330  00000-0 -26265-5 0  9992,2 52134  53.2175 122.0930 0001476 111.8851 248.2298 15.08831094122302,6917.908,95.438,540.794,538.752,0.0
52134.0,STARLINK-3721,PAYLOAD,2024-05-26 04:57:42,15.08839068,0.0001357,53.217,118.2301,93.4592,266.6555,1.8469e-05,6e-08,0.0,0 STARLINK-3721,1 52134U 22029AY  24147.20674205  .00000006  00000-0  18469-4 0  9992,2 52134  53.2170 118.2301 0001357  93.4592 266.6555 15.08839068122434,6917.883,95.438,540.687,538.809,0.0
52134.0,STARLINK-3721,PAYLOAD,2024-05-26 22:26:57,15.08831354,0.0001254,53.2174,114.9586,96.2931,263.8204,0.00010935,1.452e-05,0.0,0 STARLINK-3721,1 52134U 22029AY  24147.93538459  .00001452  00000-0  10935-3 0  9997,2 52134  53.2174 114.9586 0001254  96.2931 263.8204 15.08831354122542,6917.907,95.438,540.639,538.904,0.0
52134.0,STARLINK-3721,PAYLOAD,2024-05-27 04:48:30,15.08828406,0.0001232,53.2176,113.7699,95.0309,265.0824,8.1396e-05,1.007e-05,0.0,0 STARLINK-3721,1 52134U 22029AY  24148.20034898  .00001007  00000-0  81396-4 0  9992,2 52134  53.2176 113.7699 0001232  95.0309 265.0824 15.08828406122588,6917.916,95.438,540.633,538.929,0.0
52134.0,STARLINK-3721,PAYLOAD,2024-05-27 14:20:49,15.08831873,0.000139,53.2178,111.985,105.0327,255.0819,3.9266e-05,3.37e-06,0.0,0 STARLINK-3721,1 52134U 22029AY  24148.59778942  .00000337  00000-0  39266-4 0  9993,2 52134  53.2178 111.9850 0001390 105.0327 255.0819 15.08831873122648,6917.905,95.438,540.732,538.809,0.0
52134.0,STARLINK-3721,PAYLOAD,2024-05-28 03:03:53,15.0883723,0.0001344,53.2174,109.606,103.1193,256.9949,2.3967e-05,9.4e-07,0.0,0 STARLINK-3721,1 52134U 22029AY  24149.12770802  .00000094  00000-0  23967-4 0  9991,2 52134  53.2174 109.6060 0001344 103.1193 256.9949 15.08837230122726,6917.889,95.438,540.684,538.824,0.0
52134.0,STARLINK-3721,PAYLOAD,2024-05-29 04:30:04,15.08838314,0.0001284,53.2173,104.8476,92.6069,267.507,7.8179e-05,9.57e-06,0.0,0 STARLINK-3721,1 52134U 22029AY  24150.18754706  .00000957  00000-0  78179-4 0  9997,2 52134  53.2173 104.8476 0001284  92.6069 267.5070 15.08838314122884,6917.886,95.438,540.639,538.862,0.0
52134.0,STARLINK-3721,PAYLOAD,2024-05-29 06:05:27,15.088388,0.000129,53.2173,104.5498,92.7104,267.4036,8.0565e-05,9.94e-06,0.0,0 STARLINK-3721,1 52134U 22029AY  24150.25378672  .00000994  00000-0  80565-4 0  9992,2 52134  53.2173 104.5498 0001290  92.7104 267.4036 15.08838800122895,6917.884,95.438,540.641,538.857,0.0
52134.0,STARLINK-3721,PAYLOAD,2024-05-30 05:56:14,15.08842695,0.0001371,53.2179,100.0876,89.1501,270.9648,6.162e-05,6.93e-06,0.0,0 STARLINK-3721,1 52134U 22029AY  24151.24738643  .00000693  00000-0  61620-4 0  9997,2 52134  53.2179 100.0876 0001371  89.1501 270.9648 15.08842695123046,6917.872,95.437,540.686,538.789,0.0
52134.0,STARLINK-3721,PAYLOAD,2024-05-31 05:47:01,15.08843231,0.0001508,53.2188,95.6268,83.1666,276.9497,4.8242e-05,4.8e-06,0.0,0 STARLINK-3721,1 52134U 22029AY  24152.24098590  .00000480  00000-0  48242-4 0  9997,2 52134  53.2188  95.6268 0001508  83.1666 276.9497 15.08843231123199,6917.871,95.437,540.779,538.692,0.0
52134.0,STARLINK-3721,PAYLOAD,2024-06-01 00:51:39,15.08835684,0.0001407,53.2177,92.0583,97.7176,262.3976,2.4758e-05,1.06e-06,0.0,0 STARLINK-3721,1 52134U 22029AY  24153.03586957  .00000106  00000-0  24758-4 0  9995,2 52134  53.2177  92.0583 0001407  97.7176 262.3976 15.08835684123311,6917.894,95.438,540.732,538.785,0.0
52134.0,STARLINK-3721,PAYLOAD,2024-06-02 02:17:49,15.08836648,0.0001368,53.2177,87.3012,96.249,263.8658,5.5162e-05,5.9e-06,0.0,0 STARLINK-3721,1 52134U 22029AY  24154.09570961  .00000590  00000-0  55162-4 0  9990,2 52134  53.2177  87.3012 0001368  96.2490 263.8658 15.08836648123475,6917.891,95.438,540.702,538.809,0.0
52134.0,STARLINK-3721,PAYLOAD,2024-06-02 19:47:04,15.08827646,0.0001281,53.2179,84.0325,95.1649,264.9489,-5.9737e-06,-3.83e-06,0.0,0 STARLINK-3721,1 52134U 22029AY  24154.82436070 -.00000383  00000-0 -59737-5 0  9998,2 52134  53.2179  84.0325 0001281  95.1649 264.9489 15.08827646123580,6917.918,95.438,540.669,538.897,0.0
52134.0,STARLINK-3721,PAYLOAD,2024-06-03 02:08:38,15.08819657,0.0001239,53.218,82.8454,94.2659,265.8475,-7.623e-05,-1.5e-05,0.0,0 STARLINK-3721,1 52134U 22029AY  24155.08933127 -.00001500  00000-0 -76230-4 0  9990,2 52134  53.2180  82.8454 0001239  94.2659 265.8475 15.08819657123628,6917.943,95.439,540.665,538.95,0.0
52134.0,STARLINK-3721,PAYLOAD,2024-06-03 11:40:56,15.08827151,0.0001207,53.2184,81.0593,89.5793,270.5337,-5.3829e-06,-3.73e-06,0.0,0 STARLINK-3721,1 52134U 22029AY  24155.48676894 -.00000373  00000-0 -53829-5 0  9996,2 52134  53.2184  81.0593 0001207  89.5793 270.5337 15.08827151123682,6917.92,95.438,540.62,538.95,0.0
52134.0,STARLINK-3721,PAYLOAD,2024-06-04 03:34:46,15.08849479,0.0001112,53.2181,78.0841,82.6309,277.481,0.00015722,2.216e-05,0.0,0 STARLINK-3721,1 52134U 22029AY  24156.14915099  .00002216  00000-0  15722-3 0  9997,2 52134  53.2181  78.0841 0001112  82.6309 277.4810 15.08849479123783,6917.851,95.437,540.486,538.947,0.0
52134.0,STARLINK-3721,PAYLOAD,2024-06-04 11:31:41,15.0886338,0.0001136,53.2177,76.598,80.4628,279.6492,0.00026317,3.906e-05,0.0,0 STARLINK-3721,1 52134U 22029AY  24156.48033618  .00003906  00000-0  26317-3 0  9991,2 52134  53.2177  76.5980 0001136  80.4628 279.6492 15.08863380123834,6917.809,95.436,540.46,538.888,0.0
52134.0,STARLINK-3721,PAYLOAD,2024-06-04 17:53:14,15.08851814,0.0002383,53.2184,75.4122,81.5101,278.6161,0.00033912,5.115e-05,0.0,0 STARLINK-3721,1 52134U 22029AY  24156.74530546  .00005115  00000-0  33912-3 0  9995,2 52134  53.2184  75.4122 0002383  81.5101 278.6161 15.08851814123876,6917.844,95.437,541.358,538.061,0.0
52134.0,STARLINK-3721,PAYLOAD,2024-06-05 03:25:34,15.08837634,0.000134,53.2194,73.6278,86.8991,273.2154,0.00022253,3.255e-05,0.0,0 STARLINK-3721,1 52134U 22029AY  24157.14275508  .00003255  00000-0  22253-3 0  9993,2 52134  53.2194  73.6278 0001340  86.8991 273.2154 15.08837634123930,6917.888,95.438,540.68,538.826,0.0
52134.0,STARLINK-3721,PAYLOAD,2024-06-05 11:22:29,15.08845334,0.0001278,53.2187,72.1399,86.7414,273.3724,0.00022661,3.321e-05,0.0,0 STARLINK-3721,1 52134U 22029AY  24157.47394964  .00003321  00000-0  22661-3 0  9994,2 52134  53.2187  72.1399 0001278  86.7414 273.3724 15.08845334123984,6917.864,95.437,540.613,538.845,0.0
52134.0,STARLINK-3721,PAYLOAD,2024-06-06 03:16:21,15.08842473,0.0001179,53.2181,69.1647,85.1542,274.9584,-0.00020465,-3.544e-05,0.0,0 STARLINK-3721,1 52134U 22029AY  24158.13636454 -.00003544  00000-0 -20465-3 0  9990,2 52134  53.2181  69.1647 0001179  85.1542 274.9584 15.08842473124089,6917.873,95.437,540.553,538.922,0.0
52134.0,STARLINK-3721,PAYLOAD,2024-06-06 11:13:15,15.08859945,0.0001155,53.2186,67.6782,80.5855,279.5268,-3.9325e-05,-9.14e-06,0.0,0 STARLINK-3721,1 52134U 22029AY  24158.46754619 -.00000914  00000-0 -39325-4 0  9994,2 52134  53.2186  67.6782 0001155  80.5855 279.5268 15.08859945124135,6917.819,95.436,540.483,538.885,0.0
52134.0,STARLINK-3721,PAYLOAD,2024-06-06 17:34:50,15.08828013,0.0001466,53.2189,66.4905,86.0883,274.0277,-3.7684e-05,-8.87e-06,0.0,0 STARLINK-3721,1 52134U 22029AY  24158.73252647 -.00000887  00000-0 -37684-4 0  9993,2 52134  53.2189  66.4905 0001466  86.0883 274.0277 15.08828013124175,6917.917,95.438,540.796,538.768,0.0
52134.0,STARLINK-3721,PAYLOAD,2024-06-07 17:25:36,15.08851581,0.0004097,53.2171,62.0298,82.6642,277.4815,9.8546e-05,1.28e-05,0.0,0 STARLINK-3721,1 52134U 22029AY  24159.72611735  .00001280  00000-0  98546-4 0  9990,2 52134  53.2171  62.0298 0004097  82.6642 277.4815 15.08851581124329,6917.845,95.437,542.544,536.876,0.0
52134.0,STARLINK-3721,PAYLOAD,2024-06-07 22:11:45,15.08839235,0.000185,53.2197,61.135,89.6738,270.4467,0.00019682,2.846e-05,0.0,0 STARLINK-3721,1 52134U 22029AY  24159.92483510  .00002846  00000-0  19682-3 0  9992,2 52134  53.2197  61.1350 0001850  89.6738 270.4467 15.08839235124354,6917.883,95.438,541.028,538.468,0.0
52134.0,STARLINK-3721,PAYLOAD,2024-06-07 23:47:08,15.08835889,0.0001175,53.2161,60.839,92.3185,267.7941,0.0001669,2.369e-05,0.0,0 STARLINK-3721,1 52134U 22029AY  24159.99107630  .00002369  00000-0  16690-3 0  9991,2 52134  53.2161  60.8390 0001175  92.3185 267.7941 15.08835889124360,6917.893,95.438,540.571,538.945,0.0
52134.0,STARLINK-3721,PAYLOAD,2024-06-08 10:54:49,15.0885945,0.0001238,53.2199,58.7562,102.3334,257.7797,0.00014217,1.977e-05,0.0,0 STARLINK-3721,1 52134U 22029AY  24160.45473952  .00001977  00000-0  14217-3 0  9994,2 52134  53.2199  58.7562 0001238 102.3334 257.7797 15.08859450124432,6917.821,95.436,540.542,538.83,0.0
52134.0,STARLINK-3721,PAYLOAD,2024-06-08 17:16:23,15.08845283,0.0002753,53.2183,57.5686,92.708,267.4228,0.00019621,2.836e-05,0.0,0 STARLINK-3721,1 52134U 22029AY  24160.71971159  .00002836  00000-0  19621-3 0  9994,2 52134  53.2183  57.5686 0002753  92.7080 267.4228 15.08845283124472,6917.864,95.437,541.634,537.825,0.0
52134.0,STARLINK-3721,PAYLOAD,2024-06-08 22:02:33,15.08823943,0.0001565,53.2185,56.6769,102.416,257.7007,8.4084e-06,-1.54e-06,0.0,0 STARLINK-3721,1 52134U 22029AY  24160.91844815 -.00000154  00000-0  84084-5 0  9993,2 52134  53.2185  56.6769 0001565 102.4160 257.7007 15.08823943124504,6917.929,95.439,540.877,538.712,0.0
52134.0,STARLINK-3721,PAYLOAD,2024-06-08 23:37:57,15.08821576,0.0001341,53.2193,56.379,108.799,251.3147,8.5374e-05,1.07e-05,0.0,0 STARLINK-3721,1 52134U 22029AY  24160.98468795  .00001070  00000-0  85374-4 0  9998,2 52134  53.2193  56.3790 0001341 108.7990 251.3147 15.08821576124512,6917.937,95.439,540.729,538.874,0.0
